#dP2024 11  6  6  0  0.00000000      96 __u+U IGS20 EXT  IAC
## 2339 280800.00000000   900.00000000 60620 0.2500000000000
+   52   G02G03G04G05G06G07G08G09G10G11G12G13G14G15G16G17G18
+        G19G20G21G22G23G24G25G26G27G28G29G30G31G32R01R02R03
+        R04R05R07R08R09R11R12R14R15R16R17R18R19R20R21R22R24
+        R26  0  0  0  0  0  0  0  0  0  0  0  0  0  0  0  0
+          0  0  0  0  0  0  0  0  0  0  0  0  0  0  0  0  0
++         7  7  8  7  7  8  7  8  8  7  7  7  9  7  7  8  7
++         8  7  8  8  7  7  8  7  7  7  7  8  7  7  9  9  8
++         7  8  8  8  9  8 10  9 10 10  8  7  9  8  7  7  9
++         7  0  0  0  0  0  0  0  0  0  0  0  0  0  0  0  0
++         0  0  0  0  0  0  0  0  0  0  0  0  0  0  0  0  0
%c M  cc GPS ccc cccc cccc cccc cccc ccccc ccccc ccccc ccccc
%c cc cc ccc ccc cccc cccc cccc cccc ccccc ccccc ccccc ccccc
%f  0.0000000  0.000000000  0.00000000000  0.000000000000000
%f  0.0000000  0.000000000  0.00000000000  0.000000000000000
%i    0    0    0    0      0      0      0      0         0
%i    0    0    0    0      0      0      0      0         0
/* IAC                                ULTRA-RAPID PREDICTION
/* S/V CLOCKS ARE ALIGNED TO GNSS TIME                      
/* G:C1WC2W R:C1PC2P E:C1XC5X C:C2IC6I J:C1CC2S             
/* PCV:IGS20_2317 OL/AL:FES2004  NONE     YN ORB:CoN CLK:CoN
*  2024 11 06  8 30  0.00000000
PG02   9225.396249  13448.895719 -20564.897538   -320.795350
PG03  12616.954189  23423.753120  -1031.659751    592.138863
PG04   4577.329862  17745.052321  19184.712618    474.700161
PG05  -1982.520673 -21743.031835  14901.453994   -192.133327
PG06  24342.798884  -5677.362330   9218.433070    -93.451494
PG07  23402.304639   7795.327916  10955.285114    -21.921283
PG08  -3765.552391  23773.494747 -10835.668088    405.899471
PG09  12474.937706   8803.107304  21635.184229    431.273654
PG10 -15901.282932    351.690149 -21116.008284   -185.386941
PG11  13345.692308 -12660.080959  19170.761213   -748.729425
PG12  -8419.317439 -24799.168933  -4842.388326   -550.212478
PG13  12919.244826 -22472.295302  -5410.572706    684.830729
PG14  17872.262187   3429.596149 -19375.830168    533.799034
PG15    208.311651 -24138.525240 -11427.381505    224.475191
PG16  -4467.903075  19059.307734  17390.750539   -135.583038
PG17  18864.349173  -7626.556361 -16752.216721    569.112884
PG18 -24384.583401  -6377.386796   8764.819359   -659.916567
PG19  19300.168830 -15112.470181  -9808.301124    559.463881
PG20   6965.090011 -14750.953135  21062.622161    368.988553
PG21   2934.249991  14803.339984 -21487.302521     98.112360
PG22  14115.948981  -5250.358410 -21469.450128    -77.231031
PG23 -18774.218468 -12965.907059 -13752.794145    357.403210
PG24  -6975.290105 -15082.250029 -21237.742815   -481.731629
PG25 -17245.816732 -19092.143471   6781.354418    499.185145
PG26 -12436.215374   9734.693485  21173.963141     35.690314
PG27 -12227.505507  23297.731440  -1088.400610    -34.744661
PG28 -25059.138933   5576.398400   6807.044591   -470.181467
PG29 -10767.913490 -10721.265469  21734.816225   -565.877284
PG30  26709.079644     26.898623    157.414865   -287.599779
PG31 -18364.428075  10837.732543  15821.421492   -222.232958
PG32 -18402.503964  10633.207773 -15580.808283   -577.491190
PR01   4831.231634 -24840.312421   3185.959848    103.507621
PR02  -2611.713745 -21498.129573 -13501.176105    -25.514537
PR03  -9789.318209  -6008.650709 -22740.839381    110.842649
PR04 -11198.234900  12179.805015 -19381.352684    262.703699
PR05  -6886.428824  23884.298885  -5648.218684    140.283727
PR07   9954.528081   5381.897077  22890.810965     94.427069
PR08  11189.410071 -12532.815962  19265.931191     -6.306347
PR09  15042.070540  17883.065813  10344.267392    218.938749
PR11  16545.586097   1465.798067 -19356.599273      7.533607
PR12    653.928499 -12986.713025 -21925.665998     46.915018
PR14 -21129.464256 -12583.853216   6744.820995     27.171784
PR15 -15531.869903    -40.709390  20248.309598     74.384079
PR16   -685.371196  12793.856645  22070.015597     30.566429
PR17 -20721.025627    377.409327  14920.487989    137.378410
PR18 -23913.563381   8794.710958   -556.089410    170.524949
PR19 -16991.434715  12296.024039 -14518.023020   -297.477729
PR20   4409.718353   9515.336844 -23237.051841   -121.518121
PR21  20108.311189    324.593728 -15661.917550   -148.974757
PR22  23856.743003  -8849.479103   1876.250705     -1.473514
PR24  -5547.475296  -9559.716740  23014.027660    -79.002337
PR26  11249.502223 -10876.209881  20156.040330   -114.504450
*  2024 11 06  8 45  0.00000000
PG02   6764.877578  13792.122641 -21235.893638   -320.787740
PG03  12334.489161  23288.886408  -3914.421233    592.148236
PG04   3404.136518  19502.286329  17647.631272    474.706068
PG05   -800.518248 -20313.998783  16879.410594   -192.134434
PG06  25230.654441  -5539.927810   6501.807683    -93.477382
PG07  22109.211501   8034.853448  13290.865305    -21.918989
PG08  -4497.849504  24632.707756  -8271.710439    405.909043
PG09  11334.505683  10999.931462  21249.794843    431.288851
PG10 -17116.474646  -1707.503806 -20115.822722   -185.399657
PG11  15443.626969 -12502.783183  17628.498097   -748.731224
PG12  -7893.633182 -24312.243702  -7579.456356   -550.214814
PG13  13364.996771 -22682.548087  -2566.759647    684.832216
PG14  18849.467900   5342.991197 -17990.342437    533.806440
PG15    837.668609 -25093.017312  -8948.017713    224.479219
PG16  -5596.685121  17213.478532  18932.565472   -135.574250
PG17  17898.888806  -5778.952363 -18409.854771    569.100161
PG18 -23250.521910  -6571.555918  11316.831949   -659.917194
PG19  18790.953523 -13938.304238 -12298.574223    559.467952
PG20   8627.310070 -12986.325251  21591.489668    368.988234
PG21    406.495714  15079.026665 -21397.002742     98.111568
PG22  15216.870405  -2976.894511 -21129.280337    -77.233774
PG23 -19442.699948 -14241.121212 -11382.890663    357.410413
PG24  -4638.634397 -15422.816407 -21600.634607   -481.729948
PG25 -17384.384224 -19784.951155   4053.360237    499.184984
PG26 -13918.559993   7765.084346  21100.706055     35.678586
PG27 -12453.853534  23098.178566   1790.338530    -34.744624
PG28 -25696.271865   5371.512578   4041.005160   -470.192374
PG29  -9410.325004 -12781.000930  21235.823074   -565.874739
PG30  26559.511281    337.537921   2938.736690   -287.592843
PG31 -20086.331210  10674.332722  13769.801822   -222.232461
PG32 -17670.115151   8835.067480 -17435.133325   -577.486669
PR01   4626.861753 -24269.926128   6330.118760    103.508772
PR02  -2552.258767 -23006.492732 -10762.490493    -25.514545
PR03  -9473.707540  -8760.035400 -21975.212634    110.843360
PR04 -10763.183469   9719.742092 -20953.872849    262.705307
PR05  -6589.644149  23029.139837  -8718.883784    140.284312
PR07   9627.129833   8138.132439  22200.669100     94.427840
PR08  10783.541923 -10101.746747  20860.215564     -6.306255
PR09  13918.171867  16981.423196  13073.521483    218.940720
PR11  18418.374898   2753.727716 -17431.385128      7.532931
PR12   2834.306346 -11300.315771 -22671.621432     46.915459
PR14 -21710.379700 -12873.122439   3628.925839     27.171826
PR15 -17479.435111  -1426.427997  18536.344016     74.383806
PR16  -2876.390809  11104.661175  22793.180171     30.566775
PR17 -18835.053328   -245.576836  17240.843821    137.381480
PR18 -23721.088095   8932.694696   2680.666193    170.526664
PR19 -18466.061661  13014.136809 -11848.170968   -297.478863
PR20   1704.569695  10480.977663 -23174.739603   -121.518478
PR21  18130.147352    967.137644 -17893.017065   -148.977584
PR22  23833.876992  -8996.751872  -1334.317929     -1.484174
PR24  -2925.182299 -10636.191690  23022.490355    -79.003682
PR26  10859.837728  -8334.630368  21536.014964   -114.465871
EOF
